[
    {
        "Altitude(m)": 706789.0782857022,
        "Argument of Periapsis(deg)": 0.007973084830638947,
        "Eccentricity": 0.0,
        "Inclination(deg)": 45.0,
        "Latitude(deg)": 42.8455424219718,
        "Longitude(deg)": 166.7624424314233,
        "Mean Anomaly(deg)": 73.52775165323659,
        "RAAN(deg)": 199.99247364097928,
        "Satellite Name": "Constellation 1 884",
        "Satellite Number": 884,
        "Semi-Major Axis(m)": 7083131.272910544,
        "Time(s)": 133
    },
    {
        "Altitude(m)": 706792.7674996322,
        "Argument of Periapsis(deg)": 0.008033032836884352,
        "Eccentricity": 0.0,
        "Inclination(deg)": 45.0,
        "Latitude(deg)": 42.86212308466836,
        "Longitude(deg)": 166.837841807778,
        "Mean Anomaly(deg)": 73.58845279348647,
        "RAAN(deg)": 199.99241705181367,
        "Satellite Name": "Constellation 1 884",
        "Satellite Number": 884,
        "Semi-Major Axis(m)": 7083131.272910544,
        "Time(s)": 134
    },
    {
        "Altitude(m)": 706796.4451067977,
        "Argument of Periapsis(deg)": 0.008092980843129758,
        "Eccentricity": 0.0,
        "Inclination(deg)": 45.0,
        "Latitude(deg)": 42.8786484791191,
        "Longitude(deg)": 166.9132836453116,
        "Mean Anomaly(deg)": 73.64915393373633,
        "RAAN(deg)": 199.99236046264812,
        "Satellite Name": "Constellation 1 884",
        "Satellite Number": 884,
        "Semi-Major Axis(m)": 7083131.272910544,
        "Time(s)": 135
    },
    {
        "Altitude(m)": 706800.1110854162,
        "Argument of Periapsis(deg)": 0.008152928849375162,
        "Eccentricity": 0.0,
        "Inclination(deg)": 45.0,
        "Latitude(deg)": 42.89511854447716,
        "Longitude(deg)": 166.98876784932955,
        "Mean Anomaly(deg)": 73.70985507398628,
        "RAAN(deg)": 199.99230387348254,
        "Satellite Name": "Constellation 1 884",
        "Satellite Number": 884,
        "Semi-Major Axis(m)": 7083131.272910544,
        "Time(s)": 136
    },
    {
        "Altitude(m)": 706803.7654137743,
        "Argument of Periapsis(deg)": 0.008212876855620568,
        "Eccentricity": 0.0,
        "Inclination(deg)": 45.0,
        "Latitude(deg)": 42.91153322001659,
        "Longitude(deg)": 167.06429432457128,
        "Mean Anomaly(deg)": 73.77055621423615,
        "RAAN(deg)": 199.992247284317,
        "Satellite Name": "Constellation 1 884",
        "Satellite Number": 884,
        "Semi-Major Axis(m)": 7083131.272910544,
        "Time(s)": 137
    },
    {
        "Altitude(m)": 706807.4080702333,
        "Argument of Periapsis(deg)": 0.008272824861865974,
        "Eccentricity": 0.0,
        "Inclination(deg)": 45.0,
        "Latitude(deg)": 42.927892445133494,
        "Longitude(deg)": 167.13986297521083,
        "Mean Anomaly(deg)": 73.83125735448607,
        "RAAN(deg)": 199.99219069515144,
        "Satellite Name": "Constellation 1 884",
        "Satellite Number": 884,
        "Semi-Major Axis(m)": 7083131.272910544,
        "Time(s)": 138
    },
    {
        "Altitude(m)": 706811.0390332307,
        "Argument of Periapsis(deg)": 0.00833277286811138,
        "Eccentricity": 0.0,
        "Inclination(deg)": 45.0,
        "Latitude(deg)": 42.944196159346824,
        "Longitude(deg)": 167.2154737048567,
        "Mean Anomaly(deg)": 73.89195849473602,
        "RAAN(deg)": 199.99213410598583,
        "Satellite Name": "Constellation 1 884",
        "Satellite Number": 884,
        "Semi-Major Axis(m)": 7083131.272910544,
        "Time(s)": 139
    },
    {
        "Altitude(m)": 706814.6582812628,
        "Argument of Periapsis(deg)": 0.008392720874356788,
        "Eccentricity": 0.0,
        "Inclination(deg)": 45.0,
        "Latitude(deg)": 42.960444302299244,
        "Longitude(deg)": 167.2911264165516,
        "Mean Anomaly(deg)": 73.95265963498588,
        "RAAN(deg)": 199.99207751682027,
        "Satellite Name": "Constellation 1 884",
        "Satellite Number": 884,
        "Semi-Major Axis(m)": 7083131.272910544,
        "Time(s)": 140
    },
    {
        "Altitude(m)": 706818.2657929128,
        "Argument of Periapsis(deg)": 0.008452668880602192,
        "Eccentricity": 0.0,
        "Inclination(deg)": 45.0,
        "Latitude(deg)": 42.9766368137585,
        "Longitude(deg)": 167.36682084467625,
        "Mean Anomaly(deg)": 74.01336077523575,
        "RAAN(deg)": 199.9920209276547,
        "Satellite Name": "Constellation 1 884",
        "Satellite Number": 884,
        "Semi-Major Axis(m)": 7083131.272910544,
        "Time(s)": 141
    },
    {
        "Altitude(m)": 706821.8615468234,
        "Argument of Periapsis(deg)": 0.008512616886847598,
        "Eccentricity": 0.0,
        "Inclination(deg)": 45.0,
        "Latitude(deg)": 42.9927736336171,
        "Longitude(deg)": 167.44255722733686,
        "Mean Anomaly(deg)": 74.07406191548564,
        "RAAN(deg)": 199.99196433848914,
        "Satellite Name": "Constellation 1 884",
        "Satellite Number": 884,
        "Semi-Major Axis(m)": 7083131.272910544,
        "Time(s)": 142
    },
    {
        "Altitude(m)": 706825.4455217185,
        "Argument of Periapsis(deg)": 0.008572564893093004,
        "Eccentricity": 0.0,
        "Inclination(deg)": 45.0,
        "Latitude(deg)": 43.008854701894826,
        "Longitude(deg)": 167.51833529778335,
        "Mean Anomaly(deg)": 74.13476305573555,
        "RAAN(deg)": 199.99190774932353,
        "Satellite Name": "Constellation 1 884",
        "Satellite Number": 884,
        "Semi-Major Axis(m)": 7083131.272910544,
        "Time(s)": 143
    },
    {
        "Altitude(m)": 706829.0176963899,
        "Argument of Periapsis(deg)": 0.008632512899338408,
        "Eccentricity": 0.0,
        "Inclination(deg)": 45.0,
        "Latitude(deg)": 43.02487995873867,
        "Longitude(deg)": 167.59415495679752,
        "Mean Anomaly(deg)": 74.19546419598545,
        "RAAN(deg)": 199.99185116015798,
        "Satellite Name": "Constellation 1 884",
        "Satellite Number": 884,
        "Semi-Major Axis(m)": 7083131.272910544,
        "Time(s)": 144
    },
    {
        "Altitude(m)": 706832.5780497012,
        "Argument of Periapsis(deg)": 0.008692460905583814,
        "Eccentricity": 0.0,
        "Inclination(deg)": 45.0,
        "Latitude(deg)": 43.04084934442401,
        "Longitude(deg)": 167.6700161045962,
        "Mean Anomaly(deg)": 74.25616533623533,
        "RAAN(deg)": 199.99179457099243,
        "Satellite Name": "Constellation 1 884",
        "Satellite Number": 884,
        "Semi-Major Axis(m)": 7083131.272910544,
        "Time(s)": 145
    },
    {
        "Altitude(m)": 706836.1265605902,
        "Argument of Periapsis(deg)": 0.00875240891182922,
        "Eccentricity": 0.0,
        "Inclination(deg)": 45.0,
        "Latitude(deg)": 43.05676279935543,
        "Longitude(deg)": 167.7459186408315,
        "Mean Anomaly(deg)": 74.31686647648529,
        "RAAN(deg)": 199.99173798182684,
        "Satellite Name": "Constellation 1 884",
        "Satellite Number": 884,
        "Semi-Major Axis(m)": 7083131.272910544,
        "Time(s)": 146
    },
    {
        "Altitude(m)": 706839.6632080699,
        "Argument of Periapsis(deg)": 0.008812356918074627,
        "Eccentricity": 0.0,
        "Inclination(deg)": 45.0,
        "Latitude(deg)": 43.07262026406773,
        "Longitude(deg)": 167.82186246459062,
        "Mean Anomaly(deg)": 74.37756761673518,
        "RAAN(deg)": 199.9916813926613,
        "Satellite Name": "Constellation 1 884",
        "Satellite Number": 884,
        "Semi-Major Axis(m)": 7083131.272910544,
        "Time(s)": 147
    },
    {
        "Altitude(m)": 706843.1879712171,
        "Argument of Periapsis(deg)": 0.008872304924320031,
        "Eccentricity": 0.0,
        "Inclination(deg)": 45.0,
        "Latitude(deg)": 43.088421679227096,
        "Longitude(deg)": 167.89784730629944,
        "Mean Anomaly(deg)": 74.43826875698508,
        "RAAN(deg)": 199.99162480349568,
        "Satellite Name": "Constellation 1 884",
        "Satellite Number": 884,
        "Semi-Major Axis(m)": 7083131.272910544,
        "Time(s)": 148
    },
    {
        "Altitude(m)": 706846.7008291908,
        "Argument of Periapsis(deg)": 0.008932252930565437,
        "Eccentricity": 0.0,
        "Inclination(deg)": 45.0,
        "Latitude(deg)": 43.10416698563084,
        "Longitude(deg)": 167.97387340011082,
        "Mean Anomaly(deg)": 74.49896989723493,
        "RAAN(deg)": 199.99156821433013,
        "Satellite Name": "Constellation 1 884",
        "Satellite Number": 884,
        "Semi-Major Axis(m)": 7083131.272910544,
        "Time(s)": 149
    },
    {
        "Altitude(m)": 706850.2017612202,
        "Argument of Periapsis(deg)": 0.008992200936810843,
        "Eccentricity": 0.0,
        "Inclination(deg)": 45.0,
        "Latitude(deg)": 43.119856124210095,
        "Longitude(deg)": 168.04994047532216,
        "Mean Anomaly(deg)": 74.55967103748486,
        "RAAN(deg)": 199.99151162516458,
        "Satellite Name": "Constellation 1 884",
        "Satellite Number": 884,
        "Semi-Major Axis(m)": 7083131.272910544,
        "Time(s)": 150
    },
    {
        "Altitude(m)": 706853.6907466016,
        "Argument of Periapsis(deg)": 0.009052148943056249,
        "Eccentricity": 0.0,
        "Inclination(deg)": 45.0,
        "Latitude(deg)": 43.135489036029554,
        "Longitude(deg)": 168.12604842876422,
        "Mean Anomaly(deg)": 74.62037217773478,
        "RAAN(deg)": 199.991455035999,
        "Satellite Name": "Constellation 1 884",
        "Satellite Number": 884,
        "Semi-Major Axis(m)": 7083131.272910544,
        "Time(s)": 151
    }
]